{"type":"FeatureCollection","features":[{"type":"Feature","properties":{"name":"LFA1NIEDERSACHSEN"},"geometry":{"type":"Polygon","coordinates":[[[7.21083,53.1875],[7.22694,53.18167],[7.20306,53.17472],[7.19083,53.16028],[7.19139,53.14889],[7.18083,53.13806],[7.18472,53.12111],[7.20083,53.11444],[7.19972,53.08056],[7.215,53.00944],[7.21833,53.00667],[7.21028,52.99944],[7.18222,52.94222],[7.10583,52.86361],[7.08806,52.85028],[7.09333,52.83861],[7.07222,52.81139],[7.06389,52.71806],[7.25278,52.68333],[7.25,52.7],[7.40833,52.93333],[7.43333,52.96667],[7.6,52.95],[7.54167,52.88333],[7.4,52.7],[7.46667,52.68333],[7.47389,52.68611],[7.48583,52.68722],[7.4975,52.68556],[7.50611,52.68167],[7.50972,52.67861],[7.51222,52.67444],[7.5125,52.66778],[7.51139,52.66528],[7.50694,52.66056],[7.50222,52.65778],[7.49444,52.65528],[7.49583,52.65333],[7.54944,52.61667],[7.58667,52.58722],[7.59556,52.58111],[7.59778,52.57583],[7.605,52.57083],[7.60833,52.56528],[7.61028,52.56389],[7.62778,52.5625],[7.64361,52.56278],[7.65361,52.55722],[7.65944,52.54861],[7.66583,52.54194],[7.66694,52.53194],[7.66528,52.52889],[7.665,52.52139],[7.67167,52.51389],[7.67556,52.51333],[7.69583,52.51694],[7.70667,52.51778],[7.71833,52.51722],[7.72778,52.51861],[7.74667,52.51778],[7.7575,52.51556],[7.76667,52.50972],[7.77306,52.50389],[7.78222,52.49889],[7.78472,52.49528],[7.7925,52.49306],[7.80972,52.48472],[7.81194,52.48278],[7.82944,52.47861],[7.83028,52.4775],[7.82889,52.47472],[7.83361,52.47083],[7.875,52.45111],[7.87611,52.44694],[7.87694,52.44639],[7.88361,52.44528],[7.91944,52.44583],[7.93139,52.44472],[7.94083,52.44194],[7.95639,52.44],[7.96722,52.4375],[7.96778,52.44528],[7.97056,52.44944],[7.98889,52.46861],[7.99389,52.475],[8.00417,52.48167],[8.055,52.50583],[8.06556,52.51194],[8.07639,52.53333],[8.08417,52.54278],[8.13333,52.57333],[8.19667,52.59111],[8.20111,52.59639],[8.20389,52.60972],[8.22417,52.65167],[8.21667,52.65528],[8.21111,52.66139],[8.20972,52.66722],[8.21139,52.6725],[8.21472,52.67639],[8.22222,52.68083],[8.23278,52.68333],[8.24083,52.68333],[8.25389,52.69917],[8.26417,52.7075],[8.27194,52.71556],[8.27444,52.71694],[8.26889,52.72167],[8.2675,52.725],[8.26722,52.72806],[8.26972,52.735],[8.27389,52.73889],[8.27806,52.74111],[8.28611,52.74333],[8.29444,52.74361],[8.30389,52.74167],[8.30944,52.73889],[8.31361,52.735],[8.31556,52.73028],[8.31472,52.72528],[8.31111,52.72083],[8.47778,52.7],[8.47611,52.70222],[8.47583,52.70528],[8.47806,52.71],[8.48556,52.71722],[8.48694,52.72028],[8.49028,52.72389],[8.49639,52.7275],[8.50667,52.73028],[8.52028,52.73],[8.52806,52.72778],[8.53278,52.72528],[8.53694,52.72167],[8.56333,52.73472],[8.6,52.75639],[8.62111,52.775],[8.63278,52.78333],[8.62583,52.78556],[8.62111,52.78833],[8.61722,52.79222],[8.61472,52.79694],[8.61444,52.80194],[8.61611,52.80611],[8.61944,52.80972],[8.62306,52.81222],[8.63556,52.81611],[8.64611,52.81639],[8.65778,52.81333],[8.66528,52.80833],[8.71333,52.8325],[8.70611,52.83583],[8.69889,52.84194],[8.69667,52.84639],[8.69667,52.85083],[8.69861,52.855],[8.70194,52.85833],[8.70833,52.86167],[8.71111,52.86417],[8.71056,52.86694],[8.70889,52.86972],[8.7075,52.87694],[8.70889,52.87944],[8.71556,52.88333],[8.71611,52.885],[8.71139,52.89194],[8.70111,52.89667],[8.69056,52.91167],[8.69111,52.91861],[8.69389,52.92028],[8.69306,52.92889],[8.69056,52.93278],[8.69,52.93611],[8.68583,52.94139],[8.68556,52.9475],[8.68361,52.94917],[8.68444,52.95917],[8.225,53.05722],[8.22139,53.05194],[8.20944,53.04611],[8.20111,53.04444],[8.18806,53.04528],[8.17806,53.04944],[8.17333,53.05417],[8.17194,53.05722],[8.17167,53.06083],[8.17306,53.06472],[8.17583,53.06806],[7.95556,53.11472],[7.9425,53.11111],[7.93361,53.11222],[7.92917,53.11611],[7.92889,53.11889],[7.92667,53.12],[7.91583,53.12056],[7.90972,53.12167],[7.90778,53.12056],[7.89889,53.12028],[7.89528,53.12361],[7.89389,53.12722],[7.88694,53.13083],[7.87861,53.13167],[7.87722,53.13278],[7.87778,53.13417],[7.87528,53.13778],[7.87083,53.14],[7.86556,53.14111],[7.86917,53.14556],[7.86778,53.14722],[7.86278,53.14833],[7.86389,53.15028],[7.86361,53.15139],[7.86083,53.1525],[7.85889,53.15583],[7.85556,53.15806],[7.85556,53.16083],[7.85389,53.16417],[7.84722,53.16389],[7.84417,53.16417],[7.8425,53.16528],[7.83667,53.16556],[7.83361,53.16694],[7.83389,53.16833],[7.83278,53.16972],[7.825,53.17194],[7.82278,53.17444],[7.81833,53.17472],[7.81167,53.17222],[7.80972,53.17306],[7.80778,53.17528],[7.80194,53.17694],[7.8,53.17639],[7.79056,53.17778],[7.78306,53.17667],[7.78083,53.17472],[7.78111,53.17361],[7.78028,53.17222],[7.77861,53.17139],[7.775,53.17167],[7.76694,53.17528],[7.74778,53.17306],[7.745,53.17361],[7.74528,53.17472],[7.74167,53.17639],[7.735,53.1775],[7.73361,53.17667],[7.73361,53.17556],[7.72861,53.17444],[7.72417,53.17806],[7.72139,53.1775],[7.71472,53.18139],[7.71278,53.17972],[7.70861,53.18],[7.70611,53.17889],[7.70083,53.18056],[7.69917,53.17917],[7.69639,53.18056],[7.69556,53.18],[7.69639,53.17861],[7.69222,53.17778],[7.69056,53.18139],[7.68694,53.18167],[7.68528,53.18083],[7.68222,53.18139],[7.67472,53.17833],[7.56667,53.15833],[7.44194,53.15694],[7.43611,53.15361],[7.43222,53.15306],[7.38417,53.1625],[7.36139,53.16],[7.34472,53.16306],[7.28361,53.1775],[7.26333,53.18306],[7.24833,53.18917],[7.24472,53.18972],[7.21083,53.1875]]]}},{"type":"Feature","properties":{"name":"LFA2MUENSTERLAND"},"geometry":{"type":"Polygon","coordinates":[[[7.13917,52.20417],[7.08139,52.20972],[7.06917,52.19861],[7.04778,52.18417],[7.02806,52.17306],[7.00944,52.16472],[6.98167,52.15528],[6.96028,52.15],[6.945,52.14722],[6.91278,52.14361],[6.87889,52.14306],[6.87417,52.13028],[6.85611,52.11972],[6.76139,52.11833],[6.75639,52.09611],[6.75278,52.09583],[6.74556,52.0925],[6.75111,52.08528],[6.73556,52.075],[6.69583,52.06972],[6.68833,52.05222],[6.68861,52.04],[6.71389,52.04],[6.7525,52.02861],[6.81111,51.99583],[6.82667,51.99361],[6.83222,51.96944],[6.82111,51.96333],[6.79944,51.95861],[6.79556,51.93889],[6.78917,51.92972],[6.77028,51.91611],[6.75667,51.91389],[6.75194,51.90722],[6.7375,51.90472],[6.7325,51.89889],[6.72194,51.89611],[6.71694,51.89833],[6.68306,51.85167],[6.69028,51.85333],[6.7,51.85333],[6.7075,51.85167],[6.71528,51.8475],[6.71972,51.84194],[6.72056,51.83611],[6.7175,51.82972],[6.71222,51.82556],[6.70667,51.82306],[6.69917,51.82139],[6.6925,51.82111],[6.68444,51.82222],[6.67861,51.82417],[6.67278,51.82778],[6.66972,51.83083],[6.66778,51.83611],[6.66778,51.82417],[6.66667,51.82083],[6.66361,51.8175],[6.65806,51.81389],[6.64694,51.80889],[6.63639,51.80583],[6.62111,51.80389],[6.61111,51.80389],[6.59778,51.80556],[6.58972,51.8075],[6.58028,51.81111],[6.46056,51.83889],[6.45361,51.8375],[6.445,51.8225],[6.44333,51.82139],[6.44361,51.81972],[6.43694,51.81194],[6.42556,51.80278],[6.41944,51.79667],[6.33306,51.76667],[6.34611,51.75861],[6.35333,51.75639],[6.36417,51.75528],[6.38417,51.75694],[6.38194,51.75972],[6.38111,51.76222],[6.38111,51.76611],[6.38194,51.76861],[6.38722,51.775],[6.39278,51.77833],[6.40139,51.78083],[6.4125,51.78111],[6.41944,51.77972],[6.42528,51.77722],[6.42889,51.77472],[6.43222,51.77083],[6.43361,51.76722],[6.43361,51.76361],[6.43222,51.76],[6.42889,51.75611],[6.42056,51.75139],[6.42417,51.74667],[6.42472,51.74],[6.41972,51.73222],[6.41167,51.72556],[6.41083,51.71944],[6.41417,51.71639],[6.42083,51.71333],[6.45528,51.70667],[6.46444,51.70194],[6.47,51.69611],[6.47528,51.67972],[6.47889,51.67111],[6.4825,51.66778],[6.48972,51.66472],[6.50583,51.66278],[6.51444,51.66306],[6.51639,51.66389],[6.51667,51.67556],[6.51972,51.68556],[6.52306,51.69056],[6.52861,51.69583],[6.54083,51.70278],[6.55389,51.70778],[6.57056,51.71167],[6.58417,51.71306],[6.59833,51.71306],[6.61806,51.71056],[6.63194,51.70667],[6.64472,51.70139],[6.65556,51.69472],[6.66667,51.68417],[6.67306,51.67306],[6.67611,51.66306],[6.71944,51.66722],[6.74167,51.66833],[6.79722,51.68],[6.84167,51.68111],[6.84944,51.68361],[6.84722,51.68667],[6.84667,51.69028],[6.84833,51.69556],[6.85111,51.70028],[6.85667,51.70444],[6.865,51.70722],[6.87417,51.70778],[6.88306,51.70611],[6.89111,51.70167],[6.89444,51.69722],[6.95694,51.70528],[6.99778,51.72361],[7.00333,51.72389],[7.01222,51.72194],[7.02528,51.75083],[7.03806,51.75],[7.04333,51.74833],[7.04833,51.74556],[7.05528,51.74389],[7.06,51.74417],[7.06528,51.74306],[7.08417,51.73556],[7.08611,51.73389],[7.08889,51.72778],[7.08861,51.72472],[7.10389,51.72472],[7.10389,51.84167],[7.26667,51.8975],[7.26444,51.89389],[7.26639,51.88722],[7.27694,51.88389],[7.27556,51.88083],[7.2825,51.87639],[7.30056,51.87417],[7.31333,51.87472],[7.31944,51.87361],[7.32556,51.87222],[7.32611,51.87],[7.3325,51.86861],[7.33806,51.86611],[7.35139,51.86694],[7.35778,51.86528],[7.35861,51.86361],[7.36306,51.86139],[7.38028,51.86556],[7.41,51.88611],[7.44528,51.89917],[7.49972,51.90944],[7.49972,52.04167],[7.34972,52.13333],[7.34111,52.13056],[7.33222,52.12972],[7.32306,52.13139],[7.31639,52.13417],[7.30972,52.13972],[7.30722,52.145],[7.30694,52.1475],[7.30806,52.15222],[7.31139,52.15667],[7.24389,52.16361],[7.23389,52.16694],[7.20528,52.19278],[7.19972,52.19333],[7.19,52.19167],[7.18,52.1925],[7.16944,52.19639],[7.16361,52.20194],[7.13917,52.20417]]]}},{"type":"Feature","properties":{"name":"LFA3NORDHESSEN"},"geometry":{"type":"Polygon","coordinates":[[[7.96667,51.15556],[7.93333,51.13194],[7.93528,51.12639],[7.935,51.12278],[7.93167,51.11917],[7.92639,51.11583],[7.91556,51.1125],[7.90361,51.11222],[7.89611,51.11361],[7.88889,51.11667],[7.83333,51.04583],[7.83944,51.04833],[7.84861,51.04972],[7.85833,51.04889],[7.86694,51.04583],[7.87333,51.04056],[7.875,51.0375],[7.975,50.97361],[7.98028,50.97583],[7.99,50.97722],[8,50.97639],[8.00778,50.97361],[8.01333,50.96972],[8.01583,50.96639],[8.01694,50.96333],[8.01667,50.95833],[8.09167,50.97556],[8.08306,50.97917],[8.07833,50.98333],[8.07528,50.98972],[8.07528,50.99389],[8.07639,50.99694],[8.08139,51.00278],[8.08917,51.00694],[8.09833,51.00889],[8.10778,51.00889],[8.11556,51.00722],[8.12306,51.00361],[8.12667,51.00056],[8.13,50.995],[8.13,50.98833],[8.12722,50.98361],[8.1225,50.97944],[8.11667,50.97667],[8.15,50.96667],[8.30556,50.95278],[8.39167,50.93056],[8.39667,50.93611],[8.40389,50.93972],[8.41333,50.94167],[8.42222,50.94139],[8.43083,50.93917],[8.43694,50.93583],[8.44167,50.93056],[8.44306,50.925],[8.50556,50.92083],[8.51056,50.92528],[8.5175,50.92861],[8.52917,50.93083],[8.53972,50.93056],[8.55,50.92778],[8.55611,50.92417],[8.56167,50.91722],[8.5625,50.91083],[8.56056,50.90556],[8.55528,50.90028],[8.54833,50.89667],[8.53889,50.89444],[8.75833,50.875],[8.71667,50.93333],[8.70194,50.93583],[8.68556,50.94028],[8.67056,50.94611],[8.655,50.95417],[8.64472,50.96111],[8.63306,50.97111],[8.62556,50.97917],[8.61833,50.98917],[8.61333,50.99944],[8.61,51.01167],[8.60944,51.02111],[8.61083,51.03194],[8.61444,51.0425],[8.61833,51.05],[8.62556,51.05972],[8.63333,51.06778],[8.64417,51.07639],[8.65639,51.08389],[8.67861,51.09361],[8.70139,51.1],[8.72528,51.10361],[8.7425,51.10444],[8.755,51.10417],[8.78639,51.10028],[8.81111,51.09333],[8.82167,51.08917],[8.83333,51.08333],[8.88333,51.175],[9.38333,51.61667],[9.35056,51.66639],[9.35,51.66861],[9.35056,51.67361],[9.35306,51.67778],[9.35694,51.68111],[9.36278,51.68417],[9.37333,51.68667],[9.38222,51.68667],[9.38861,51.68556],[9.39833,51.68139],[9.40222,51.67806],[9.405,51.67361],[9.4125,51.64722],[9.56667,51.62778],[9.64167,51.64444],[9.63139,51.645],[9.62167,51.64806],[9.61611,51.6525],[9.61361,51.65778],[9.61361,51.66194],[9.61444,51.66417],[9.61806,51.66917],[9.62333,51.67278],[9.63472,51.67611],[9.6425,51.67639],[9.64889,51.67556],[9.65917,51.67167],[9.66556,51.66556],[9.66694,51.66194],[9.66667,51.65694],[9.76667,51.65833],[9.81667,51.83333],[9.88333,51.87778],[9.54167,51.98056],[9.54056,51.975],[9.53889,51.9725],[9.5325,51.96778],[9.52083,51.96472],[9.5125,51.96472],[9.50444,51.96639],[9.4975,51.96972],[9.49222,51.975],[9.49083,51.97889],[9.49083,51.98222],[9.49194,51.98528],[9.47139,51.98583],[9.46611,51.98556],[9.4625,51.98417],[9.45806,51.98361],[9.45056,51.985],[9.43667,51.99028],[9.43306,51.99417],[9.43194,51.99694],[9.42861,52.00111],[9.42361,52.00278],[9.41806,52.01111],[9.4125,52.01361],[9.39611,52.02667],[9.39278,52.03222],[9.37917,52.03722],[9.37806,52.03833],[9.37806,52.04083],[9.37389,52.03833],[9.35528,52.03111],[9.35278,52.02917],[9.33972,52.01444],[9.33806,52.01167],[9.33667,52.00583],[9.33861,51.99972],[9.33333,51.99389],[9.32917,51.99306],[9.32222,51.99333],[9.31889,51.9925],[9.31028,51.98861],[9.2825,51.98028],[9.27056,51.97306],[9.27472,51.96861],[9.27611,51.96194],[9.27556,51.95917],[9.27333,51.95528],[9.26694,51.95028],[9.26167,51.94806],[9.255,51.94667],[9.24889,51.94639],[9.23806,51.9475],[9.23444,51.94111],[9.23194,51.93889],[9.22694,51.93667],[9.21028,51.93667],[9.20222,51.93472],[9.19833,51.935],[9.19278,51.93667],[9.18806,51.93639],[9.17472,51.93167],[9.16,51.92333],[9.14111,51.92111],[9.13944,51.92],[9.13694,51.91417],[9.12361,51.90889],[9.10556,51.89639],[9.09667,51.88639],[9.10639,51.88444],[9.1125,51.88139],[9.11639,51.87806],[9.11972,51.87167],[9.11972,51.86722],[9.11833,51.86361],[9.11556,51.86],[9.11056,51.85639],[9.10111,51.85306],[9.10222,51.84611],[9.1,51.84139],[9.09194,51.83889],[9.09167,51.8375],[9.04306,51.78333],[9.05361,51.78667],[9.06639,51.78722],[9.07611,51.78528],[9.08389,51.78194],[9.08917,51.77806],[9.09333,51.7725],[9.09444,51.76889],[9.09444,51.76444],[9.09194,51.75861],[9.05,51.73333],[9.04972,51.72667],[9.04833,51.72389],[9.04444,51.72111],[9.03778,51.71861],[9.02722,51.71694],[9.01917,51.71722],[9.01333,51.71833],[9.00417,51.72194],[8.99972,51.725],[8.99722,51.72778],[8.63333,51.30833],[8.63667,51.30667],[8.64167,51.3025],[8.64389,51.29917],[8.645,51.29556],[8.64472,51.29139],[8.64333,51.28833],[8.63778,51.2825],[8.62778,51.27806],[8.61889,51.27667],[8.61139,51.27694],[8.60444,51.27833],[8.59611,51.28222],[8.59139,51.28639],[8.58889,51.29056],[8.58833,51.29306],[8.58889,51.29833],[8.59167,51.30278],[8.58806,51.30528],[8.585,51.31083],[8.58528,51.31389],[8.58778,51.31917],[8.58472,51.32444],[8.58389,51.33083],[8.58139,51.33417],[8.57583,51.3375],[8.575,51.34139],[8.55278,51.34194],[8.55,51.3425],[8.54472,51.3475],[8.54139,51.34861],[8.53444,51.34861],[8.51917,51.35028],[8.51667,51.35222],[8.51306,51.35972],[8.50917,51.36167],[8.50972,51.35972],[8.50917,51.35361],[8.50806,51.35139],[8.50417,51.3475],[8.49611,51.34333],[8.48583,51.34139],[8.47778,51.34167],[8.47222,51.34278],[8.46583,51.34528],[8.46139,51.34833],[8.45833,51.35167],[8.45639,51.35611],[8.45639,51.36056],[8.45833,51.365],[8.45722,51.36639],[8.45417,51.36778],[8.44861,51.36722],[8.445,51.36528],[8.44167,51.36472],[8.43361,51.36611],[8.42694,51.36917],[8.41778,51.36917],[8.4125,51.3675],[8.41583,51.36333],[8.41694,51.35944],[8.41667,51.35611],[8.41528,51.35278],[8.40972,51.34722],[8.40194,51.34389],[8.39611,51.34278],[8.38528,51.34306],[8.3775,51.34528],[8.37278,51.34778],[8.37,51.35028],[8.36778,51.35333],[8.36667,51.35667],[8.34611,51.35361],[8.33472,51.35389],[8.31639,51.35222],[8.3175,51.34583],[8.31667,51.34056],[8.31167,51.33639],[8.30444,51.33333],[8.29556,51.33167],[8.28361,51.33222],[8.27556,51.33444],[8.26806,51.33889],[8.26028,51.33722],[8.25472,51.33333],[8.25639,51.33028],[8.25528,51.32583],[8.25611,51.32444],[8.25778,51.32278],[8.26167,51.32222],[8.26833,51.31722],[8.26833,51.31583],[8.25639,51.31028],[8.25667,51.30778],[8.25917,51.30556],[8.25694,51.30222],[8.26139,51.29639],[8.26167,51.29222],[8.26083,51.29083],[8.26194,51.28944],[8.26167,51.28667],[8.26306,51.28306],[8.25667,51.27417],[8.2425,51.265],[8.23222,51.26111],[8.22861,51.25861],[8.22389,51.2575],[8.21722,51.25417],[8.20889,51.25167],[8.19167,51.27083],[8.00333,51.175],[8.00667,51.16972],[8.00694,51.16611],[8.00278,51.16111],[7.99917,51.15861],[7.99111,51.15528],[7.98333,51.15389],[7.975,51.15389],[7.96667,51.15556]]]}},{"type":"Feature","properties":{"name":"LFA5HAMBURG/BREMEN"},"geometry":{"type":"Polygon","coordinates":[[[9.41694,52.95889],[9.45639,52.95694],[9.49056,52.96083],[9.54333,52.9725],[9.5575,52.9775],[9.55639,52.98028],[9.55667,52.98472],[9.55917,52.98944],[9.56278,52.99306],[9.56944,52.99667],[9.57917,52.99889],[9.58722,52.99889],[9.5925,52.99806],[9.59778,52.99639],[9.60306,52.99361],[9.60667,52.99028],[9.60889,52.98639],[9.60917,52.98111],[9.60833,52.97917],[9.63583,52.97889],[9.64139,52.97944],[9.72111,52.99083],[9.73056,52.99139],[9.7575,52.98944],[9.77861,52.98444],[9.78889,52.98389],[9.78583,52.99139],[9.78556,52.99667],[9.78778,53],[9.79278,53.005],[9.79917,53.00944],[9.80639,53.01306],[9.82,53.0175],[9.83194,53.01944],[9.84806,53.01972],[9.85889,53.05111],[9.85778,53.06083],[9.86417,53.07333],[9.86139,53.08639],[9.84472,53.13472],[9.84694,53.15389],[9.8425,53.15833],[9.84056,53.1775],[9.82,53.21083],[9.80694,53.225],[9.80194,53.24056],[9.80944,53.24944],[9.79306,53.29028],[9.805,53.31306],[9.68417,53.37944],[9.67639,53.39222],[9.66556,53.3975],[9.64056,53.39889],[9.595,53.41333],[9.56111,53.42694],[9.53972,53.44194],[9.52694,53.4475],[9.52139,53.44833],[9.50944,53.44806],[9.48,53.45389],[9.44472,53.45778],[9.42639,53.45722],[9.37361,53.46139],[9.32111,53.46944],[9.30444,53.47083],[9.26861,53.46861],[9.23528,53.46972],[9.22111,53.47333],[9.17444,53.4725],[9.15861,53.47694],[9.15889,53.47528],[9.165,53.46639],[9.16639,53.45806],[9.17278,53.44611],[9.17278,53.44333],[9.17083,53.43778],[9.17167,53.43472],[9.17833,53.42694],[9.18333,53.41667],[9.19583,53.40528],[9.19667,53.40278],[9.19722,53.39222],[9.20972,53.365],[9.22306,53.34444],[9.22556,53.33333],[9.25389,53.305],[9.25889,53.30806],[9.26278,53.30944],[9.27278,53.31],[9.28917,53.30778],[9.29417,53.30639],[9.3,53.30333],[9.30361,53.29972],[9.305,53.29667],[9.30528,53.29361],[9.30361,53.28917],[9.30139,53.28667],[9.29778,53.28417],[9.2925,53.28194],[9.28278,53.28056],[9.31028,53.25694],[9.33639,53.24194],[9.33806,53.23917],[9.3375,53.23639],[9.33,53.21222],[9.34972,53.21278],[9.36306,53.21194],[9.37972,53.21028],[9.40083,53.20639],[9.41972,53.20083],[9.43611,53.19417],[9.45111,53.18583],[9.45833,53.18056],[9.465,53.1825],[9.47333,53.18194],[9.49306,53.17694],[9.49806,53.17389],[9.50056,53.17083],[9.50167,53.16583],[9.50056,53.1625],[9.49833,53.15972],[9.49083,53.15556],[9.48333,53.15417],[9.48667,53.14472],[9.48778,53.13389],[9.48778,53.12472],[9.48583,53.11472],[9.48167,53.10444],[9.475,53.09417],[9.47,53.08833],[9.46,53.07917],[9.45,53.07222],[9.41694,52.95889]]]}},{"type":"Feature","properties":{"name":"LFA6SCHLESWIG-HOLSTEIN"},"geometry":{"type":"Polygon","coordinates":[[[9.26556,54.01667],[9.28889,53.87472],[9.33139,53.85917],[9.35528,53.83861],[9.38111,53.83083],[9.4025,53.80861],[9.40278,53.80361],[9.40583,53.80139],[9.40972,53.80583],[9.41667,53.80972],[9.42833,53.81222],[9.43639,53.81222],[9.44417,53.81083],[9.45528,53.80528],[9.45806,53.80222],[9.45972,53.79833],[9.46,53.795],[9.45917,53.79194],[9.45528,53.78667],[9.4475,53.78222],[9.43667,53.77972],[9.42778,53.77972],[9.41944,53.78139],[9.41,53.78611],[9.42389,53.76889],[9.42917,53.75306],[9.44333,53.74083],[9.45583,53.73306],[9.62194,53.77111],[9.6325,53.77722],[9.64528,53.78],[9.65833,53.78028],[9.67139,53.77778],[9.68028,53.78083],[9.70833,53.78306],[9.72556,53.78833],[9.74583,53.7925],[9.77111,53.79306],[9.87611,53.79167],[9.88833,53.85472],[9.88861,53.87389],[9.88139,53.91139],[9.87056,53.91444],[9.85889,53.91889],[9.85306,53.92222],[9.84833,53.92611],[9.84361,53.93167],[9.84056,53.93861],[9.83972,53.94472],[9.84083,53.95139],[9.84639,53.96139],[9.85361,53.96806],[9.86556,53.97472],[9.87806,53.97889],[9.89111,53.98139],[9.90861,53.98194],[9.91972,53.98083],[9.93222,53.97778],[9.93194,53.99972],[9.95389,54.02639],[9.92944,54.035],[9.91639,54.04222],[9.91111,54.04694],[9.90583,54.05361],[9.90222,54.06],[9.89944,54.06889],[9.89889,54.07667],[9.89972,54.08278],[9.90139,54.08833],[9.90528,54.09583],[9.91472,54.10694],[9.92083,54.11194],[9.9325,54.11917],[9.89361,54.14389],[9.87222,54.15583],[9.86806,54.1525],[9.86194,54.14944],[9.85722,54.14833],[9.85,54.14833],[9.83722,54.15111],[9.82778,54.15667],[9.82361,54.1625],[9.82278,54.16611],[9.82361,54.17111],[9.82556,54.17444],[9.83,54.17861],[9.83778,54.1825],[9.79556,54.24694],[9.79222,54.25083],[9.78694,54.25389],[9.745,54.27278],[9.74028,54.26861],[9.73167,54.26333],[9.72139,54.25861],[9.71306,54.25583],[9.66,54.21667],[9.65833,54.20806],[9.65306,54.1975],[9.64444,54.18833],[9.63611,54.18278],[9.61833,54.17528],[9.59944,54.17083],[9.58278,54.16917],[9.56,54.17],[9.54389,54.17306],[9.53028,54.17694],[9.51806,54.1825],[9.51,54.1875],[9.50194,54.19417],[9.49722,54.19944],[9.49333,54.20583],[9.49056,54.21389],[9.44056,54.25278],[9.35722,54.24167],[9.35056,54.28111],[9.33306,54.28417],[9.32417,54.2825],[9.32111,54.2775],[9.28889,54.275],[9.285,54.29028],[9.26917,54.29611],[9.27444,54.30194],[9.27556,54.30806],[9.27222,54.31639],[9.27889,54.325],[9.26417,54.33167],[9.26722,54.34056],[9.25917,54.34472],[9.24694,54.34056],[9.24028,54.34222],[9.23056,54.34806],[9.21917,54.34722],[9.21806,54.34361],[9.22806,54.33861],[9.22167,54.32167],[9.19333,54.33389],[9.1775,54.33639],[9.15444,54.33722],[9.13944,54.33889],[9.13583,54.34222],[9.13694,54.34639],[9.13361,54.35167],[9.11833,54.35278],[9.10667,54.35778],[9.10472,54.36528],[9.08917,54.37167],[9.07944,54.36667],[9.06,54.35],[8.99667,54.37361],[8.98639,54.36528],[8.9825,54.35972],[8.98139,54.35],[8.98556,54.34528],[8.99583,54.34028],[8.99306,54.3325],[8.98139,54.32722],[8.97139,54.31639],[8.95333,54.31389],[8.94778,54.31028],[8.94278,54.30306],[8.94139,54.28806],[8.92917,54.27778],[8.90417,54.26167],[8.89111,54.25833],[8.91556,54.14167],[8.92722,54.13111],[8.94194,54.10389],[8.99889,54.1],[9.05167,54.08333],[9.04944,54.08722],[9.04944,54.09222],[9.05222,54.09694],[9.05833,54.10194],[9.06472,54.105],[9.07167,54.10667],[9.07861,54.10722],[9.08778,54.10611],[9.09556,54.10333],[9.10167,54.09861],[9.10417,54.09361],[9.10333,54.0875],[9.09944,54.08278],[9.0925,54.07889],[9.085,54.07694],[9.07667,54.07639],[9.26556,54.01667]]]}},{"type":"Feature","properties":{"name":"LFA7BAYERN"},"geometry":{"type":"Polygon","coordinates":[[[10.42333,49.29083],[10.14833,49.18806],[10.15667,49.18056],[10.16528,49.17],[10.17222,49.15778],[10.17556,49.14861],[10.1775,49.13778],[10.1775,49.1275],[10.17528,49.11556],[10.17056,49.10389],[10.16694,49.0975],[10.15806,49.08611],[10.14833,49.07694],[10.13611,49.06833],[10.12833,49.06472],[10.12028,49.06222],[10.08167,49.05472],[10.12333,48.99917],[10.13806,48.99944],[10.15139,48.99806],[10.1675,48.99417],[10.17694,48.99056],[10.1875,48.985],[10.19861,48.97639],[10.20361,48.97083],[10.20944,48.96111],[10.21222,48.95167],[10.21222,48.94111],[10.20833,48.92944],[10.20111,48.91917],[10.19556,48.91389],[10.18111,48.90528],[10.16639,48.9],[10.15083,48.89694],[10.15778,48.89528],[10.17167,48.88944],[10.17472,48.88722],[10.17806,48.8825],[10.19361,48.87583],[10.20222,48.87361],[10.21,48.87028],[10.22444,48.87083],[10.2475,48.865],[10.25083,48.86611],[10.25306,48.87083],[10.25583,48.8725],[10.25806,48.87278],[10.26528,48.87139],[10.27167,48.8725],[10.275,48.87194],[10.27778,48.87],[10.28306,48.86833],[10.29611,48.86639],[10.29917,48.86444],[10.29944,48.85917],[10.305,48.85389],[10.30667,48.85333],[10.33167,48.76028],[10.42333,48.62417],[10.61611,48.61139],[10.62278,48.61333],[10.63083,48.61722],[10.64472,48.62556],[10.65833,48.63639],[10.66889,48.64222],[10.695,48.64917],[10.70028,48.65111],[10.70361,48.65361],[10.70556,48.65667],[10.70583,48.66028],[10.70222,48.66583],[10.70194,48.66833],[10.70333,48.67111],[10.71389,48.67861],[10.72917,48.68389],[10.725,48.68722],[10.71694,48.69611],[10.71361,48.70194],[10.71139,48.70778],[10.71056,48.71194],[10.71056,48.71972],[10.71139,48.72417],[10.71444,48.73167],[10.72194,48.74167],[10.73278,48.75028],[10.74667,48.75694],[10.76472,48.76167],[10.78028,48.76306],[10.79472,48.76222],[10.81083,48.75889],[10.82222,48.75472],[10.83333,48.74861],[10.84389,48.73972],[10.85083,48.72944],[10.8525,48.72417],[11.03167,48.73528],[11.03167,48.76111],[11.05667,48.76167],[11.0675,48.77889],[11.08972,48.78972],[11.11167,48.795],[11.12417,48.80917],[11.11639,48.81111],[11.09056,48.80889],[11.08111,48.81556],[11.08194,48.82556],[11.06917,48.825],[11.05444,48.83083],[11.05917,48.8425],[11.07167,48.84611],[11.07889,48.85194],[11.07778,48.86111],[11.09611,48.86278],[11.09972,48.86361],[11.1025,48.86528],[11.10444,48.86778],[11.10472,48.87],[11.10306,48.87833],[11.10667,48.8825],[11.10806,48.88833],[11.11056,48.89389],[11.115,48.90056],[11.12361,48.90889],[11.13389,48.91556],[11.14278,48.91972],[11.15889,48.92444],[11.17722,48.92667],[11.19056,48.92639],[11.20444,48.92444],[11.21667,48.92111],[11.22611,48.91722],[11.23667,48.91111],[11.2425,48.90667],[11.24833,48.90056],[11.25167,48.89583],[11.25528,48.88833],[11.25667,48.8825],[11.37611,48.99639],[11.36972,48.99889],[11.36083,49.00083],[11.35694,49.00333],[11.355,49.00722],[11.35472,49.01083],[11.35667,49.01417],[11.36583,49.02],[11.36806,49.02306],[11.36694,49.02667],[11.36222,49.03139],[11.35694,49.03972],[11.34056,49.04444],[11.33,49.05222],[11.32472,49.05972],[11.32083,49.06278],[11.2975,49.07417],[11.29083,49.08],[11.28889,49.08417],[11.28333,49.10472],[11.27917,49.11194],[11.27639,49.12222],[11.27083,49.13306],[11.26167,49.17306],[11.25806,49.17917],[11.2425,49.19778],[11.23611,49.19778],[11.22639,49.2],[11.22417,49.19722],[11.22,49.18806],[11.21639,49.1825],[11.20972,49.17389],[11.20361,49.16778],[11.19778,49.16278],[11.18556,49.15444],[11.17583,49.14917],[11.1625,49.14333],[11.14361,49.1375],[11.12056,49.13333],[11.1,49.13194],[11.07611,49.13306],[11.05,49.13778],[11.03528,49.14222],[11.02306,49.14722],[11.01056,49.15361],[11.00056,49.16028],[10.98694,49.1725],[10.98278,49.17222],[10.97861,49.17472],[10.97694,49.17472],[10.97528,49.17222],[10.96861,49.17306],[10.96333,49.175],[10.96167,49.17389],[10.95722,49.17333],[10.95306,49.17556],[10.95389,49.17639],[10.95278,49.17833],[10.94972,49.17694],[10.94778,49.17694],[10.94722,49.17583],[10.94389,49.17639],[10.93944,49.17583],[10.93778,49.17639],[10.93556,49.17889],[10.92972,49.17861],[10.92778,49.17722],[10.92222,49.17722],[10.92111,49.17972],[10.91861,49.18083],[10.91722,49.18028],[10.91278,49.18083],[10.90917,49.18444],[10.90694,49.18556],[10.90194,49.18444],[10.89778,49.185],[10.88889,49.18833],[10.88556,49.18861],[10.88361,49.19361],[10.88861,49.19583],[10.88917,49.19972],[10.89889,49.20111],[10.89972,49.20306],[10.89861,49.205],[10.89972,49.20667],[10.89861,49.20917],[10.88861,49.21222],[10.88722,49.22056],[10.88194,49.22222],[10.87667,49.22139],[10.87472,49.22361],[10.86806,49.22389],[10.87056,49.22694],[10.86722,49.22917],[10.85944,49.23139],[10.855,49.23],[10.85,49.23056],[10.84944,49.23306],[10.83778,49.23472],[10.83722,49.23667],[10.83139,49.23889],[10.83083,49.24167],[10.8275,49.24222],[10.82306,49.24722],[10.81583,49.24833],[10.80778,49.2525],[10.80333,49.25222],[10.80278,49.25389],[10.79611,49.25611],[10.79222,49.25556],[10.78917,49.25722],[10.78611,49.25639],[10.79028,49.26139],[10.78694,49.26361],[10.77778,49.26389],[10.77056,49.26194],[10.76417,49.265],[10.75611,49.26639],[10.74972,49.26944],[10.73833,49.25778],[10.72389,49.24667],[10.705,49.23667],[10.68806,49.23028],[10.67556,49.22694],[10.66222,49.22444],[10.63167,49.22417],[10.54833,49.2075],[10.42333,49.29083]]]}},{"type":"Feature","properties":{"name":"LFA8ANEUBRANDENBURG"},"geometry":{"type":"Polygon","coordinates":[[[12.5,54.23333],[12.81667,53.65],[13.9,53.66667],[13.15,54.23333],[12.5,54.23333]]]}},{"type":"Feature","properties":{"name":"LFA8BNEUBRANDENBURG"},"geometry":{"type":"Polygon","coordinates":[[[12.81667,53.65],[12.9,53.5],[12.9,53.28333],[14,53],[14,53.6],[13.9,53.66667],[12.81667,53.65]]]}},{"type":"Feature","properties":{"name":"LFA8CNEUBRANDENBUR"},"geometry":{"type":"Polygon","coordinates":[[[12.9,53.28333],[12.9,52.83333],[13.3,52.83333],[14,53],[12.9,53.28333]]]}},{"type":"Feature","properties":{"name":"LFA8DNEUBRANDENBURG"},"geometry":{"type":"Polygon","coordinates":[[[12.1,53.28333],[12.1,52.83333],[12.9,52.83333],[12.9,53.28333],[12.1,53.28333]]]}}]}
